{"fetched_at":"2026-07-16T06:42:38.478Z","source":"https://celestrak.org/NORAD/elements/gp.php?GROUP=spire&FORMAT=JSON","constellation":"spire","records":[{"OBJECT_NAME":"LEMUR-1","OBJECT_ID":"2014-033AL","EPOCH":"2026-07-15T22:12:15.891552","CLASSIFICATION_TYPE":"U","MEAN_MOTION":14.85338142,"ECCENTRICITY":0.00476698,"INCLINATION":97.791,"RA_OF_ASC_NODE":346.0985,"ARG_OF_PERICENTER":345.4974,"MEAN_ANOMALY":14.487,"EPHEMERIS_TYPE":0,"NORAD_CAT_ID":40044,"ELEMENT_SET_NO":999,"REV_AT_EPOCH":64973,"BSTAR":0.000095096253,"MEAN_MOTION_DOT":0.00000778,"MEAN_MOTION_DDOT":0},{"OBJECT_NAME":"LEMUR-2-GREENBERG","OBJECT_ID":"2017-042N","EPOCH":"2026-07-15T23:04:12.063072","CLASSIFICATION_TYPE":"U","MEAN_MOTION":15.32167939,"ECCENTRICITY":0.00072432,"INCLINATION":97.3828,"RA_OF_ASC_NODE":17.4724,"ARG_OF_PERICENTER":256.081,"MEAN_ANOMALY":103.9626,"EPHEMERIS_TYPE":0,"NORAD_CAT_ID":42837,"ELEMENT_SET_NO":999,"REV_AT_EPOCH":49279,"BSTAR":0.00031169196,"MEAN_MOTION_DOT":0.00009612,"MEAN_MOTION_DDOT":0},{"OBJECT_NAME":"LEMUR-2-ANDIS","OBJECT_ID":"2017-042P","EPOCH":"2026-07-15T11:11:14.414784","CLASSIFICATION_TYPE":"U","MEAN_MOTION":15.35931248,"ECCENTRICITY":0.00072081,"INCLINATION":97.3678,"RA_OF_ASC_NODE":17.265,"ARG_OF_PERICENTER":256.6782,"MEAN_ANOMALY":103.3658,"EPHEMERIS_TYPE":0,"NORAD_CAT_ID":42838,"ELEMENT_SET_NO":999,"REV_AT_EPOCH":49279,"BSTAR":0.00035705217,"MEAN_MOTION_DOT":0.00012423,"MEAN_MOTION_DDOT":0},{"OBJECT_NAME":"LEMUR-2-MONSON","OBJECT_ID":"2017-042Q","EPOCH":"2026-07-15T23:13:21.815040","CLASSIFICATION_TYPE":"U","MEAN_MOTION":15.28765284,"ECCENTRICITY":0.00053394,"INCLINATION":97.4091,"RA_OF_ASC_NODE":17.4066,"ARG_OF_PERICENTER":241.2271,"MEAN_ANOMALY":118.8433,"EPHEMERIS_TYPE":0,"NORAD_CAT_ID":42839,"ELEMENT_SET_NO":999,"REV_AT_EPOCH":49256,"BSTAR":0.00028661533,"MEAN_MOTION_DOT":0.00007942,"MEAN_MOTION_DDOT":0},{"OBJECT_NAME":"LEMUR-2-FURIAUS","OBJECT_ID":"2017-042R","EPOCH":"2026-07-15T10:50:41.301024","CLASSIFICATION_TYPE":"U","MEAN_MOTION":15.31136141,"ECCENTRICITY":0.00060603,"INCLINATION":97.3774,"RA_OF_ASC_NODE":14.8562,"ARG_OF_PERICENTER":329.0574,"MEAN_ANOMALY":31.0309,"EPHEMERIS_TYPE":0,"NORAD_CAT_ID":42840,"ELEMENT_SET_NO":999,"REV_AT_EPOCH":49253,"BSTAR":0.00033596338,"MEAN_MOTION_DOT":0.00010036,"MEAN_MOTION_DDOT":0},{"OBJECT_NAME":"LEMUR-2-PETERG","OBJECT_ID":"2017-042S","EPOCH":"2026-07-15T19:02:04.482816","CLASSIFICATION_TYPE":"U","MEAN_MOTION":15.35043275,"ECCENTRICITY":0.0003336,"INCLINATION":97.3989,"RA_OF_ASC_NODE":21.8945,"ARG_OF_PERICENTER":217.3071,"MEAN_ANOMALY":142.7941,"EPHEMERIS_TYPE":0,"NORAD_CAT_ID":42841,"ELEMENT_SET_NO":999,"REV_AT_EPOCH":49282,"BSTAR":0.00036941008,"MEAN_MOTION_DOT":0.00012488,"MEAN_MOTION_DDOT":0},{"OBJECT_NAME":"LEMUR-2-DEMBITZ","OBJECT_ID":"2017-042T","EPOCH":"2026-07-15T11:19:07.345920","CLASSIFICATION_TYPE":"U","MEAN_MOTION":15.31114268,"ECCENTRICITY":0.00050522,"INCLINATION":97.3825,"RA_OF_ASC_NODE":17.9201,"ARG_OF_PERICENTER":273.6984,"MEAN_ANOMALY":86.3679,"EPHEMERIS_TYPE":0,"NORAD_CAT_ID":42842,"ELEMENT_SET_NO":999,"REV_AT_EPOCH":49267,"BSTAR":0.00029755612,"MEAN_MOTION_DOT":0.00008871,"MEAN_MOTION_DDOT":0},{"OBJECT_NAME":"LEMUR-2-ZACHARY","OBJECT_ID":"2017-042W","EPOCH":"2026-07-15T13:37:37.336800","CLASSIFICATION_TYPE":"U","MEAN_MOTION":15.52741253,"ECCENTRICITY":0.0002547,"INCLINATION":97.3566,"RA_OF_ASC_NODE":28.8574,"ARG_OF_PERICENTER":243.6817,"MEAN_ANOMALY":116.4174,"EPHEMERIS_TYPE":0,"NORAD_CAT_ID":42845,"ELEMENT_SET_NO":999,"REV_AT_EPOCH":49360,"BSTAR":0.00057411,"MEAN_MOTION_DOT":0.00035477,"MEAN_MOTION_DDOT":0},{"OBJECT_NAME":"LEMUR-2-AMANDA-SVANTE","OBJECT_ID":"2021-034B","EPOCH":"2026-07-15T18:38:11.262336","CLASSIFICATION_TYPE":"U","MEAN_MOTION":15.3598409,"ECCENTRICITY":0.00046521,"INCLINATION":97.575,"RA_OF_ASC_NODE":275.8503,"ARG_OF_PERICENTER":141.7869,"MEAN_ANOMALY":218.3705,"EPHEMERIS_TYPE":0,"NORAD_CAT_ID":48269,"ELEMENT_SET_NO":999,"REV_AT_EPOCH":28544,"BSTAR":0.00061884833,"MEAN_MOTION_DOT":0.0002164,"MEAN_MOTION_DDOT":0},{"OBJECT_NAME":"LEMUR-2-SPECIAL-K","OBJECT_ID":"2021-034F","EPOCH":"2026-07-15T18:40:44.878080","CLASSIFICATION_TYPE":"U","MEAN_MOTION":15.74935345,"ECCENTRICITY":0.00062794,"INCLINATION":97.5635,"RA_OF_ASC_NODE":285.922,"ARG_OF_PERICENTER":213.1843,"MEAN_ANOMALY":146.9028,"EPHEMERIS_TYPE":0,"NORAD_CAT_ID":48273,"ELEMENT_SET_NO":999,"REV_AT_EPOCH":28617,"BSTAR":0.0013215308,"MEAN_MOTION_DOT":0.00199645,"MEAN_MOTION_DDOT":0},{"OBJECT_NAME":"LEMUR-2-EMBRIONOVIS","OBJECT_ID":"2023-084AQ","EPOCH":"2026-07-15T09:00:11.737440","CLASSIFICATION_TYPE":"U","MEAN_MOTION":15.38233354,"ECCENTRICITY":0.00083247,"INCLINATION":97.6315,"RA_OF_ASC_NODE":341.6746,"ARG_OF_PERICENTER":205.3093,"MEAN_ANOMALY":154.7745,"EPHEMERIS_TYPE":0,"NORAD_CAT_ID":56970,"ELEMENT_SET_NO":999,"REV_AT_EPOCH":17201,"BSTAR":0.00021630377,"MEAN_MOTION_DOT":0.00008068,"MEAN_MOTION_DDOT":0},{"OBJECT_NAME":"LEMUR-2-DEVERILL-M-T","OBJECT_ID":"2023-100F","EPOCH":"2026-07-15T22:40:52.806432","CLASSIFICATION_TYPE":"U","MEAN_MOTION":15.41114697,"ECCENTRICITY":0.00046751,"INCLINATION":99.4451,"RA_OF_ASC_NODE":244.0411,"ARG_OF_PERICENTER":294.1699,"MEAN_ANOMALY":65.9052,"EPHEMERIS_TYPE":0,"NORAD_CAT_ID":57391,"ELEMENT_SET_NO":999,"REV_AT_EPOCH":16567,"BSTAR":0.00036954395,"MEAN_MOTION_DOT":0.00015193,"MEAN_MOTION_DDOT":0},{"OBJECT_NAME":"LEMUR-2-BASS","OBJECT_ID":"2023-174D","EPOCH":"2026-07-15T17:37:17.643072","CLASSIFICATION_TYPE":"U","MEAN_MOTION":15.44006422,"ECCENTRICITY":0.00076452,"INCLINATION":97.3849,"RA_OF_ASC_NODE":281.8631,"ARG_OF_PERICENTER":76.5946,"MEAN_ANOMALY":283.6154,"EPHEMERIS_TYPE":0,"NORAD_CAT_ID":58259,"ELEMENT_SET_NO":999,"REV_AT_EPOCH":14976,"BSTAR":0.00024343668,"MEAN_MOTION_DOT":0.00011022,"MEAN_MOTION_DDOT":0},{"OBJECT_NAME":"LEMUR-2-JK0903EM1407","OBJECT_ID":"2023-174CJ","EPOCH":"2026-07-15T19:51:50.899680","CLASSIFICATION_TYPE":"U","MEAN_MOTION":15.53090157,"ECCENTRICITY":0.00035358,"INCLINATION":97.3926,"RA_OF_ASC_NODE":288.1346,"ARG_OF_PERICENTER":31.4434,"MEAN_ANOMALY":328.703,"EPHEMERIS_TYPE":0,"NORAD_CAT_ID":58336,"ELEMENT_SET_NO":999,"REV_AT_EPOCH":15017,"BSTAR":0.00026432083,"MEAN_MOTION_DOT":0.00016449,"MEAN_MOTION_DDOT":0},{"OBJECT_NAME":"LEMUR-2-MJR092620","OBJECT_ID":"2023-174CN","EPOCH":"2026-07-15T20:14:15.111744","CLASSIFICATION_TYPE":"U","MEAN_MOTION":15.45877781,"ECCENTRICITY":0.00052237,"INCLINATION":97.3978,"RA_OF_ASC_NODE":287.4202,"ARG_OF_PERICENTER":28.1838,"MEAN_ANOMALY":331.9693,"EPHEMERIS_TYPE":0,"NORAD_CAT_ID":58340,"ELEMENT_SET_NO":999,"REV_AT_EPOCH":15007,"BSTAR":0.00023458255,"MEAN_MOTION_DOT":0.00011311,"MEAN_MOTION_DDOT":0},{"OBJECT_NAME":"LEMUR-2-NIMBUS2000","OBJECT_ID":"2024-022A","EPOCH":"2026-07-15T12:40:39.387360","CLASSIFICATION_TYPE":"U","MEAN_MOTION":15.41126431,"ECCENTRICITY":0.00087191,"INCLINATION":97.4076,"RA_OF_ASC_NODE":46.9039,"ARG_OF_PERICENTER":27.8272,"MEAN_ANOMALY":332.3439,"EPHEMERIS_TYPE":0,"NORAD_CAT_ID":58899,"ELEMENT_SET_NO":999,"REV_AT_EPOCH":13663,"BSTAR":0.00034278394,"MEAN_MOTION_DOT":0.00014134,"MEAN_MOTION_DDOT":0}]}
